API VERSION: 1.2
API SOURCE: NASA/JPL Horizons API



*******************************************************************************
Ephemeris / API_USER Sat Jul 11 19:36:55 2026 Pasadena, USA      / Horizons    
*******************************************************************************
Target body name: 2060 Chiron (1977 UB)           {source: JPL#171}
Center body name: Earth (399)                     {source: DE441}
Center-site name: GEOCENTRIC
*******************************************************************************
Start time      : A.D. 2005-Jan-01 00:00:00.0000 UT      
Stop  time      : A.D. 2010-Jan-01 00:00:00.0000 UT      
Step-size       : 2880 minutes
*******************************************************************************
Target pole/equ : undefined
Target radii    : 83. km                                                       
Center geodetic : 0.0, 0.0, -6378.137             {E-lon(deg),Lat(deg),Alt(km)}
Center cylindric: 0.0, 0.0, 0.0                   {E-lon(deg),Dxy(km),Dz(km)}
Center pole/equ : ITRF93                          {East-longitude positive}
Center radii    : 6378.137, 6378.137, 6356.752 km {Equator_a, b, pole_c}       
Target primary  : Sun
Vis. interferer : MOON (R_eq= 1737.400) km        {source: DE441}
Rel. light bend : Sun                             {source: DE441}
Rel. lght bnd GM: 1.3271E+11 km^3/s^2                                          
Small-body perts: Yes                             {source: SB441-N16}
Atmos refraction: NO (AIRLESS)
RA format       : DEG
Time format     : CAL 
Calendar mode   : Mixed Julian/Gregorian
EOP file        : eop.260710.p261006                                           
EOP coverage    : DATA-BASED 1962-JAN-20 TO 2026-JUL-10. PREDICTS-> 2026-OCT-05
Units conversion: 1 au= 149597870.700 km, c= 299792.458 km/s, 1 day= 86400.0 s 
Table cut-offs 1: Elevation (-90.0deg=NO ),Airmass (>38.000=NO), Daylight (NO )
Table cut-offs 2: Solar elongation (  0.0,180.0=NO ),Local Hour Angle( 0.0=NO )
Table cut-offs 3: RA/DEC angular rate (     0.0=NO )                           
*******************************************************************************
Initial IAU76/J2000 heliocentric ecliptic osculating elements (au, days, deg.):
  EPOCH=  2457916.5 ! 2017-Jun-12.00 (TDB)         Residual RMS= .19933        
   EC= .3824171374703196   QR= 8.427522999110739   TP= 2450143.7110841358      
   OM= 209.2011323125998   W=  339.6529896907077   IN= 6.94959060447848        
  Equivalent ICRF heliocentric cartesian coordinates (au, au/d):
   X= 1.843374627977423E+01  Y=-1.877818593473934E+00  Z= 5.548833989583914E-01
  VX= 7.316266023833624E-04 VY= 2.960187278972600E-03 VZ= 9.710586201315230E-04
Asteroid physical parameters (km, seconds, rotational period in hours):        
   GM= n.a.                RAD= 83.                ROTPER= 5.918               
   H= 5.54                 G= .150                 B-V= .704                   
                           ALBEDO= .150            STYP= Cb                    
*******************************************************************************
 Date__(UT)__HR:MN        ObsEcLon    ObsEcLat
**********************************************
$$SOE
 2006-Jul-31 00:00     307.0187005   7.3974304
 2006-Aug-02 00:00     306.9069451   7.3960437
 2006-Aug-04 00:00     306.7955805   7.3939924
 2006-Aug-06 00:00     306.6848083   7.3912815
 2006-Aug-08 00:00     306.5747808   7.3879167
 2006-Aug-10 00:00     306.4656131   7.3839040
 2006-Aug-12 00:00     306.3574581   7.3792488
 2006-Aug-14 00:00     306.2505512   7.3739560
 2006-Aug-16 00:00     306.1451395   7.3680311
 2006-Aug-18 00:00     306.0414140   7.3614811
 2006-Aug-20 00:00     305.9395224   7.3543150
 2006-Aug-22 00:00     305.8396100   7.3465441
 2006-Aug-24 00:00     305.7418440   7.3381817
 2006-Aug-26 00:00     305.6464174   7.3292430
 2006-Aug-28 00:00     305.5535369   7.3197443
 2006-Aug-30 00:00     305.4634043   7.3097035
 2006-Sep-01 00:00     305.3761986   7.2991392
 2006-Sep-03 00:00     305.2920603   7.2880706
 2006-Sep-05 00:00     305.2110818   7.2765169
 2006-Sep-07 00:00     305.1333299   7.2644972
 2006-Sep-09 00:00     305.0589192   7.2520291
 2006-Sep-11 00:00     304.9880385   7.2391295
 2006-Sep-13 00:00     304.9208603   7.2258153
 2006-Sep-15 00:00     304.8574838   7.2121047
 2006-Sep-17 00:00     304.7979751   7.1980176
 2006-Sep-19 00:00     304.7424117   7.1835752
 2006-Sep-21 00:00     304.6908942   7.1688001
 2006-Sep-23 00:00     304.6435419   7.1537155
 2006-Sep-25 00:00     304.6004789   7.1383454
 2006-Sep-27 00:00     304.5618149   7.1227140
 2006-Sep-29 00:00     304.5276278   7.1068455
 2006-Oct-01 00:00     304.4979530   7.0907637
 2006-Oct-03 00:00     304.4727864   7.0744919
 2006-Oct-05 00:00     304.4521181   7.0580518
 2006-Oct-07 00:00     304.4359938   7.0414639
 2006-Oct-09 00:00     304.4245169   7.0247469
 2006-Oct-11 00:00     304.4177525   7.0079196
 2006-Oct-13 00:00     304.4156883   6.9910011
 2006-Oct-15 00:00     304.4182943   6.9740121
 2006-Oct-17 00:00     304.4255655   6.9569737
 2006-Oct-19 00:00     304.4375226   6.9399077
 2006-Oct-21 00:00     304.4541998   6.9228359
 2006-Oct-23 00:00     304.4756304   6.9057801
 2006-Oct-25 00:00     304.5018269   6.8887617
 2006-Oct-27 00:00     304.5327645   6.8718018
 2006-Oct-29 00:00     304.5683768   6.8549201
 2006-Oct-31 00:00     304.6085736   6.8381354
 2006-Nov-02 00:00     304.6532829   6.8214649
 2006-Nov-04 00:00     304.7024907   6.8049240
 2006-Nov-06 00:00     304.7562185   6.7885266
 2006-Nov-08 00:00     304.8144347   6.7722867
 2006-Nov-10 00:00     304.8770378   6.7562183
 2006-Nov-12 00:00     304.9439247   6.7403365
 2006-Nov-14 00:00     305.0150289   6.7246570
 2006-Nov-16 00:00     305.0903113   6.7091954
 2006-Nov-18 00:00     305.1697423   6.6939673
 2006-Nov-20 00:00     305.2532863   6.6789880
 2006-Nov-22 00:00     305.3408831   6.6642723
 2006-Nov-24 00:00     305.4324313   6.6498342
 2006-Nov-26 00:00     305.5277919   6.6356865
 2006-Nov-28 00:00     305.6268224   6.6218408
 2006-Nov-30 00:00     305.7294208   6.6083071
 2006-Dec-02 00:00     305.8355387   6.5950938
 2006-Dec-04 00:00     305.9451350   6.5822085
 2006-Dec-06 00:00     306.0581093   6.5696587
 2006-Dec-08 00:00     306.1743077   6.5574522
 2006-Dec-10 00:00     306.2935888   6.5455978
 2006-Dec-12 00:00     306.4158544   6.5341046
 2006-Dec-14 00:00     306.5410333   6.5229818
 2006-Dec-16 00:00     306.6690589   6.5122385
 2006-Dec-18 00:00     306.7998542   6.5018834
 2006-Dec-20 00:00     306.9333147   6.4919248
 2006-Dec-22 00:00     307.0692926   6.4823703
 2006-Dec-24 00:00     307.2076088   6.4732263
 2006-Dec-26 00:00     307.3481018   6.4644979
 2006-Dec-28 00:00     307.4906684   6.4561885
 2006-Dec-30 00:00     307.6352450   6.4483009
 2007-Jan-01 00:00     307.7817471   6.4408371
 2007-Jan-03 00:00     307.9300320   6.4337994
 2007-Jan-05 00:00     308.0799263   6.4271906
 2007-Jan-07 00:00     308.2312805   6.4210141
 2007-Jan-09 00:00     308.3839890   6.4152741
 2007-Jan-11 00:00     308.5379692   6.4099746
 2007-Jan-13 00:00     308.6931388   6.4051195
 2007-Jan-15 00:00     308.8493999   6.4007126
 2007-Jan-17 00:00     309.0066254   6.3967571
 2007-Jan-19 00:00     309.1646461   6.3932556
 2007-Jan-21 00:00     309.3232695   6.3902097
 2007-Jan-23 00:00     309.4823396   6.3876197
 2007-Jan-25 00:00     309.6417695   6.3854845
 2007-Jan-27 00:00     309.8014896   6.3838017
 2007-Jan-29 00:00     309.9613850   6.3825681
 2007-Jan-31 00:00     310.1212941   6.3817802
 2007-Feb-02 00:00     310.2810504   6.3814364
 2007-Feb-04 00:00     310.4405191   6.3815380
 2007-Feb-06 00:00     310.5996026   6.3820864
 2007-Feb-08 00:00     310.7582206   6.3830821
 2007-Feb-10 00:00     310.9162875   6.3845249
 2007-Feb-12 00:00     311.0736983   6.3864142
 2007-Feb-14 00:00     311.2303179   6.3887489
 2007-Feb-16 00:00     311.3859748   6.3915272
 2007-Feb-18 00:00     311.5404850   6.3947465
 2007-Feb-20 00:00     311.6937157   6.3984024
 2007-Feb-22 00:00     311.8456054   6.4024895
 2007-Feb-24 00:00     311.9960849   6.4070017
 2007-Feb-26 00:00     312.1450230   6.4119331
 2007-Feb-28 00:00     312.2922570   6.4172784
 2007-Mar-02 00:00     312.4376407   6.4230331
 2007-Mar-04 00:00     312.5810652   6.4291928
 2007-Mar-06 00:00     312.7224535   6.4357538
 2007-Mar-08 00:00     312.8617391   6.4427122
 2007-Mar-10 00:00     312.9988446   6.4500636
 2007-Mar-12 00:00     313.1336691   6.4578037
 2007-Mar-14 00:00     313.2660819   6.4659272
 2007-Mar-16 00:00     313.3959254   6.4744284
 2007-Mar-18 00:00     313.5230435   6.4832999
 2007-Mar-20 00:00     313.6473403   6.4925334
 2007-Mar-22 00:00     313.7687835   6.5021187
 2007-Mar-24 00:00     313.8873098   6.5120453
 2007-Mar-26 00:00     314.0027859   6.5223030
 2007-Mar-28 00:00     314.1150684   6.5328825
 2007-Mar-30 00:00     314.2240495   6.5437749
 2007-Apr-01 00:00     314.3296602   6.5549715
 2007-Apr-03 00:00     314.4318553   6.5664640
 2007-Apr-05 00:00     314.5305925   6.5782437
 2007-Apr-07 00:00     314.6258139   6.5903017
 2007-Apr-09 00:00     314.7174354   6.6026284
 2007-Apr-11 00:00     314.8053460   6.6152136
 2007-Apr-13 00:00     314.8894198   6.6280462
 2007-Apr-15 00:00     314.9695501   6.6411136
 2007-Apr-17 00:00     315.0456938   6.6544019
 2007-Apr-19 00:00     315.1178549   6.6678956
 2007-Apr-21 00:00     315.1859884   6.6815790
 2007-Apr-23 00:00     315.2499824   6.6954365
 2007-Apr-25 00:00     315.3097360   6.7094537
 2007-Apr-27 00:00     315.3651991   6.7236165
 2007-Apr-29 00:00     315.4163591   6.7379111
 2007-May-01 00:00     315.4632187   6.7523237
 2007-May-03 00:00     315.5057773   6.7668402
 2007-May-05 00:00     315.5440151   6.7814463
 2007-May-07 00:00     315.5778845   6.7961268
 2007-May-09 00:00     315.6073163   6.8108659
 2007-May-11 00:00     315.6322421   6.8256466
 2007-May-13 00:00     315.6526299   6.8404507
